QIANFAN-89              
1 63175U 25046S   26025.27831817  .00000296  00000+0  43936-3 0  9995
2 63175  88.9797 315.5402 0017365   6.3466 353.7902 13.50965195 53280
QIANFAN-90              
1 63176U 25046T   26025.30706181  .00000291  00000+0  43189-3 0  9990
2 63176  88.9798 315.5096 0014252   6.0619 354.0702 13.50966571 53304
QIANFAN-91              
1 66033U 25233A   26025.26571785  .00000060  00000+0  74399-4 0  9990
2 66033  88.9913  57.6733 0001865  89.5599 270.5766 13.50991066 13887
QIANFAN-92              
1 66034U 25233B   26024.16276649 -.02097656  00000+0 -35842+1 0  9997
2 66034  88.9890  57.7794 0004940 247.6455 112.4172 13.48989690 13731
QIANFAN-93              
1 66035U 25233C   26025.28217442  .00000082  00000+0  10768-3 0  9994
2 66035  88.9924  57.6799 0001928  89.7077 270.4295 13.50993959 13885
QIANFAN-94              
1 66036U 25233D   26024.45681918  .00000129  00000+0  16626-3 0  9997
2 66036  88.9925  57.6724 0014204 266.5713  93.3816 13.56504062 13822
QIANFAN-95              
1 66037U 25233E   26025.28019851  .00000034  00000+0  17694-4 0  9993
2 66037  88.9921  57.2067 0011244 260.1849  99.8053 13.87071704 14142
QIANFAN-96              
1 66038U 25233F   26025.22868197  .00000056  00000+0  68884-4 0  9994
2 66038  88.9916  57.6878 0001807  88.7532 271.3826 13.50991497 13872
